NORAD_CAT_ID,OBJECT_NAME,OBJECT_TYPE,EPOCH,MEAN_MOTION,ECCENTRICITY,INCLINATION,RA_OF_ASC_NODE,ARG_OF_PERICENTER,MEAN_ANOMALY,BSTAR,MEAN_MOTION_DOT,MEAN_MOTION_DDOT,TLE_LINE0,TLE_LINE1,TLE_LINE2,SEMIMAJOR_AXIS,PERIOD,APOGEE,PERIGEE,DECAYED
27216,PSLV DEB,DEBRIS,2021-11-24 00:59:36,15.05663198,0.0031463000000000003,98.2254,356.9094,154.6297,235.9885,0.00021615,3.084e-05,0.0,0 PSLV DEB,1 27216U 01049FL  21328.04139309  .00003084  00000-0  21615-3 0  9990,2 27216  98.2254 356.9094 0031463 154.6297 235.9885 15.05663198 81022,6927.608,95.639,571.269,527.6759999999998,0.0
27216,PSLV DEB,DEBRIS,2021-11-25 14:13:17,15.05672336,0.0031566,98.2259,358.5622,149.3934,3.9783,0.00019965,2.844e-05,0.0,0 PSLV DEB,1 27216U 01049FL  21329.59255899  .00002844  00000-0  19965-3 0  9992,2 27216  98.2259 358.5622 0031566 149.3934   3.9783 15.05672336 81265,6927.58,95.63799999999999,571.312,527.577,0.0
27216,PSLV DEB,DEBRIS,2021-11-26 08:44:16,15.05677457,0.0031636,98.2262,359.3847,146.8341,225.9251,0.00021081,3.007e-05,0.0,0 PSLV DEB,1 27216U 01049FL  21330.36407916  .00003007  00000-0  21081-3 0  9992,2 27216  98.2262 359.3847 0031636 146.8341 225.9251 15.05677457 81387,6927.564,95.63799999999999,571.345,527.513,0.0
27216,PSLV DEB,DEBRIS,2021-11-26 20:37:09,15.05679689,0.0031654,98.2262,359.9123,145.2099,29.3345,0.0001888,2.686e-05,0.0,0 PSLV DEB,1 27216U 01049FL  21330.85913850  .00002686  00000-0  18880-3 0  9990,2 27216  98.2262 359.9123 0031654 145.2099  29.3345 15.05679689 81450,6927.557,95.63799999999999,571.351,527.494,0.0
27216,PSLV DEB,DEBRIS,2021-11-27 00:46:01,15.05680624,0.003168,98.2262,0.0966,144.6268,246.1108,0.00018552,2.638e-05,0.0,0 PSLV DEB,1 27216U 01049FL  21331.03196023  .00002638  00000-0  18552-3 0  9999,2 27216  98.2262   0.0966 0031680 144.6268 246.1108 15.05680624 81478,6927.554,95.63799999999999,571.366,527.4730000000002,0.0
27216,PSLV DEB,DEBRIS,2021-11-28 13:59:05,15.0569169,0.0031835,98.2264,1.7495,139.43200000000002,11.8432,0.00021985,3.141e-05,0.0,0 PSLV DEB,1 27216U 01049FL  21332.58269809  .00003141  00000-0  21985-3 0  9997,2 27216  98.2264   1.7495 0031835 139.4320  11.8432 15.05691690 81717,6927.52,95.637,571.439,527.332,0.0
27216,PSLV DEB,DEBRIS,2021-11-28 20:28:05,15.05692241,0.0031850999999999997,98.2263,2.0375,138.5344,36.1341,0.00019948,2.843e-05,0.0,0 PSLV DEB,1 27216U 01049FL  21332.85283947  .00002843  00000-0  19948-3 0  9990,2 27216  98.2263   2.0375 0031851 138.5344  36.1341 15.05692241 81757,6927.519,95.637,571.448,527.319,0.0
27216,PSLV DEB,DEBRIS,2021-11-29 13:54:26,15.056983800000001,0.0031958999999999998,98.2261,2.8119,136.0952,14.8958,0.00022479,3.214e-05,0.0,0 PSLV DEB,1 27216U 01049FL  21333.57947899  .00003214  00000-0  22479-3 0  9999,2 27216  98.2261   2.8119 0031959 136.0952  14.8958 15.05698380 81865,6927.5,95.637,571.504,527.225,0.0
27216,PSLV DEB,DEBRIS,2021-11-30 20:18:55,15.05706458,0.0032044000000000005,98.2254,4.1621,131.94899999999998,42.6229,0.00021857,3.124e-05,0.0,0 PSLV DEB,1 27216U 01049FL  21334.84648137  .00003124  00000-0  21857-3 0  9992,2 27216  98.2254   4.1621 0032044 131.9490  42.6229 15.05706458 82055,6927.475,95.63600000000001,571.538,527.1419999999998,0.0
27216,PSLV DEB,DEBRIS,2021-11-30 21:40:58,15.05705678,0.0032069000000000004,98.2256,4.2231,131.7549,351.4305,0.00019601,2.794e-05,0.0,0 PSLV DEB,1 27216U 01049FL  21334.90345086  .00002794  00000-0  19601-3 0  9992,2 27216  98.2256   4.2231 0032069 131.7549 351.4305 15.05705678 82065,6927.477,95.63600000000001,571.558,527.127,0.0
27216,PSLV DEB,DEBRIS,2021-12-01 08:21:30,15.05711985,0.0032132,98.2256,4.697,130.2753,242.6019,0.00026134,3.751e-05,0.0,0 PSLV DEB,1 27216U 01049FL  21335.34827234  .00003751  00000-0  26134-3 0  9994,2 27216  98.2256   4.6970 0032132 130.2753 242.6019 15.05711985 82130,6927.458000000001,95.63600000000001,571.582,527.064,0.0
27216,PSLV DEB,DEBRIS,2021-12-01 21:36:29,15.05714204,0.0032159,98.2253,5.2856,128.5047,355.0212,0.00023194,3.321e-05,0.0,0 PSLV DEB,1 27216U 01049FL  21335.90033655  .00003321  00000-0  23194-3 0  9998,2 27216  98.2253   5.2856 0032159 128.5047 355.0212 15.05714204 82212,6927.451,95.63600000000001,571.594,527.038,0.0
27216,PSLV DEB,DEBRIS,2021-12-02 13:40:45,15.05718401,0.0032198,98.225,5.9993,126.3513,24.729,0.00022031,3.151e-05,0.0,0 PSLV DEB,1 27216U 01049FL  21336.56996903  .00003151  00000-0  22031-3 0  9995,2 27216  98.2250   5.9993 0032198 126.3513  24.7290 15.05718401 82315,6927.438,95.635,571.6080000000002,526.998,0.0
27216,PSLV DEB,DEBRIS,2021-12-04 01:57:01,15.05727728,0.0032229999999999997,98.2243,7.6098,121.5161,296.6324,0.00020459999999999999,2.922e-05,0.0,0 PSLV DEB,1 27216U 01049FL  21338.08126319  .00002922  00000-0  20460-3 0  9999,2 27216  98.2243   7.6098 0032230 121.5161 296.6324 15.05727728 82540,6927.41,95.635,571.602,526.948,0.0
27216,PSLV DEB,DEBRIS,2021-12-04 08:07:46,15.05728827,0.0032241999999999995,98.2241,7.8842,120.7085,252.2416,0.00019305,2.753e-05,0.0,0 PSLV DEB,1 27216U 01049FL  21338.33873611  .00002753  00000-0  19305-3 0  9999,2 27216  98.2241   7.8842 0032242 120.7085 252.2416 15.05728827 82581,6927.406,95.635,571.607,526.936,0.0
27216,PSLV DEB,DEBRIS,2021-12-05 08:17:13,15.05732649,0.0032220999999999994,98.2237,8.9567,117.5267,308.2178,0.00014992,2.122e-05,0.0,0 PSLV DEB,1 27216U 01049FL  21339.34529116  .00002122  00000-0  14992-3 0  9996,2 27216  98.2237   8.9567 0032221 117.5267 308.2178 15.05732649 82736,6927.395,95.635,571.58,526.939,0.0
27216,PSLV DEB,DEBRIS,2021-12-06 07:58:43,15.05737101,0.00322,98.2232,10.0085,114.3986,259.0492,0.0001398,1.974e-05,0.0,0 PSLV DEB,1 27216U 01049FL  21340.33244399  .00001974  00000-0  13980-3 0  9994,2 27216  98.2232  10.0085 0032200 114.3986 259.0492 15.05737101 82886,6927.3809999999985,95.634,571.552,526.94,0.0
27216,PSLV DEB,DEBRIS,2021-12-06 21:14:11,15.05738952,0.0032168,98.2231,10.5971,112.6521,13.3505,0.00013214,1.862e-05,0.0,0 PSLV DEB,1 27216U 01049FL  21340.88485043  .00001862  00000-0  13214-3 0  9993,2 27216  98.2231  10.5971 0032168 112.6521  13.3505 15.05738952 82963,6927.375,95.634,571.524,526.956,0.0
27216,PSLV DEB,DEBRIS,2021-12-07 01:42:01,15.05739711,0.0032164999999999997,98.223,10.7953,112.0594,301.5757,0.00013155,1.853e-05,0.0,0 PSLV DEB,1 27216U 01049FL  21341.07085272  .00001853  00000-0  13155-3 0  9999,2 27216  98.2230  10.7953 0032165 112.0594 301.5757 15.05739711 82993,6927.373000000001,95.634,571.52,526.956,0.0
27216,PSLV DEB,DEBRIS,2021-12-07 08:07:43,15.05740408,0.0032158,98.223,11.0806,111.2121,313.4017,0.00012482,1.755e-05,0.0,0 PSLV DEB,1 27216U 01049FL  21341.33869365  .00001755  00000-0  12482-3 0  9994,2 27216  98.2230  11.0806 0032158 111.2121 313.4017 15.05740408 83035,6927.371,95.634,571.513,526.9590000000002,0.0
27216,PSLV DEB,DEBRIS,2021-12-07 21:09:38,15.05741409,0.0032115000000000004,98.223,11.6592,109.492,16.7183,0.00010674,1.49e-05,0.0,0 PSLV DEB,1 27216U 01049FL  21341.88169244  .00001490  00000-0  10674-3 0  9990,2 27216  98.2230  11.6592 0032115 109.4920  16.7183 15.05741409 83110,6927.368,95.634,571.48,526.986,0.0
27216,PSLV DEB,DEBRIS,2021-12-08 08:02:56,15.05743102,0.00321,98.2229,12.1425,108.0464,315.8913,0.00011354,1.589e-05,0.0,0 PSLV DEB,1 27216U 01049FL  21342.33537188  .00001589  00000-0  11354-3 0  9992,2 27216  98.2229  12.1425 0032100 108.0464 315.8913 15.05743102 83184,6927.363,95.634,571.464,526.991,0.0
27216,PSLV DEB,DEBRIS,2021-12-09 13:09:32,15.05746988,0.003203,98.223,13.4349,104.1567,50.598,0.00012252,1.721e-05,0.0,0 PSLV DEB,1 27216U 01049FL  21343.54829721  .00001721  00000-0  12252-3 0  9999,2 27216  98.2230  13.4349 0032030 104.1567  50.5980 15.05746988 83360,6927.351,95.634,571.404,527.0269999999998,0.0
27216,PSLV DEB,DEBRIS,2021-12-10 07:53:18,15.05749387,0.0031954,98.2232,14.2666,101.616,320.75,0.00013037,1.836e-05,0.0,0 PSLV DEB,1 27216U 01049FL  21344.32868236  .00001836  00000-0  13037-3 0  9999,2 27216  98.2232  14.2666 0031954 101.6160 320.7500 15.05749387 83487,6927.343000000003,95.633,571.344,527.073,0.0
27216,PSLV DEB,DEBRIS,2021-12-11 01:17:18,15.05751686,0.0031944000000000005,98.2233,15.0391,99.28399999999999,290.6812,0.00012906,1.817e-05,0.0,0 PSLV DEB,1 27216U 01049FL  21345.05368587  .00001817  00000-0  12906-3 0  9997,2 27216  98.2233  15.0391 0031944  99.2840 290.6812 15.05751686 83585,6927.3359999999975,95.633,571.33,527.073,0.0
27216,PSLV DEB,DEBRIS,2021-12-12 01:12:47,15.05755529,0.0031954,98.2234,16.1013,96.0973,294.2491,0.00013671,1.929e-05,0.0,0 PSLV DEB,1 27216U 01049FL  21346.05055102  .00001929  00000-0  13671-3 0  9998,2 27216  98.2234  16.1013 0031954  96.0973 294.2491 15.05755529 83743,6927.324000000001,95.633,571.325,527.054,0.0
27216,PSLV DEB,DEBRIS,2021-12-13 01:15:27,15.05760608,0.003206,98.2233,17.169,92.854,324.9278,0.00013768,1.944e-05,0.0,0 PSLV DEB,1 27216U 01049FL  21347.05240598  .00001944  00000-0  13768-3 0  9998,2 27216  98.2233  17.1690 0032060  92.8540 324.9278 15.05760608 83880,6927.309,95.633,571.383,526.965,0.0
27216,PSLV DEB,DEBRIS,2021-12-13 07:38:50,15.05762421,0.0032083,98.2232,17.4527,92.0228,328.0284,0.00014806,2.096e-05,0.0,0 PSLV DEB,1 27216U 01049FL  21347.31863545  .00002096  00000-0  14806-3 0  9993,2 27216  98.2232  17.4527 0032083  92.0228 328.0284 15.05762421 83934,6927.303000000001,95.633,571.393,526.943,0.0
27216,PSLV DEB,DEBRIS,2021-12-13 20:54:50,15.057648,0.0032075000000000003,98.2233,18.0418,90.2209,84.4742,0.00014961,2.119e-05,0.0,0 PSLV DEB,1 27216U 01049FL  21347.87141792  .00002119  00000-0  14961-3 0  9995,2 27216  98.2233  18.0418 0032075  90.2209  84.4742 15.05764800 84016,6927.2959999999985,95.632,571.38,526.942,0.0
27216,PSLV DEB,DEBRIS,2021-12-14 07:33:49,15.05767661,0.0032078000000000002,98.2233,18.5147,88.7976,329.7878,0.00016207,2.302e-05,0.0,0 PSLV DEB,1 27216U 01049FL  21348.31515223  .00002302  00000-0  16207-3 0  9998,2 27216  98.2233  18.5147 0032078  88.7976 329.7878 15.05767661 84075,6927.2869999999975,95.632,571.374,526.931,0.0
